IRIDIUM 155             
1 43573U 18061E   25037.61507564  .00000292  00000+0  97264-4 0  9993
2 43573  86.3926 263.7455 0002336  92.5501 267.5962 14.34217136342329
IRIDIUM 154             
1 43574U 18061F   25037.59604813  .00000220  00000+0  71656-4 0  9994
2 43574  86.3929 263.8626 0002056  85.2209 274.9221 14.34217974342372
IRIDIUM 163             
1 43575U 18061G   25037.57701962  .00000109  00000+0  31832-4 0  9994
2 43575  86.3929 263.8015 0001979  90.3074 269.8349 14.34217792342344
IRIDIUM 156             
1 43576U 18061H   25037.62140251  .00000347  00000+0  11670-3 0  9990
2 43576  86.3929 263.7898 0002482  89.7101 270.4380 14.34214529342344
IRIDIUM 164             
1 43577U 18061J   25037.60238209  .00000128  00000+0  38730-4 0  9994
2 43577  86.3928 263.8301 0002064  79.6885 280.4543 14.34212587342385
IRIDIUM 159             
1 43578U 18061K   25037.64044431  .00000214  00000+0  69424-4 0  9991
2 43578  86.3928 263.7612 0001765  83.9913 276.1484 14.34217379342354
IRIDIUM 180             
1 43922U 19002A   25037.50040846  .00000653  00000+0  22603-3 0  9995
2 43922  86.3994 200.7172 0001971  97.0536 263.0884 14.34218563317940
IRIDIUM 176             
1 43923U 19002B   25037.53847042  .00000347  00000+0  51089-4 0  9993
2 43923  86.6115 200.7040 0001052 106.6193 253.5139 14.72254114326322
IRIDIUM 168             
1 43924U 19002C   25037.49405806  .00000210  00000+0  67963-4 0  9994
2 43924  86.3994 200.7829 0001910  92.3854 267.7560 14.34219496317921
IRIDIUM 173             
1 43925U 19002D   25037.48137050  .00000582  00000+0  20089-3 0  9996
2 43925  86.4000 200.6988 0001831  92.5999 267.5407 14.34215059317907
IRIDIUM 169             
1 43926U 19002E   25037.59783603  .00000264  00000+0  79828-4 0  9993
2 43926  86.4199 232.2456 0002949 121.2850 238.8637 14.38606835318979
IRIDIUM 172             
1 43927U 19002F   25037.54480373  .00000487  00000+0  16672-3 0  9991
2 43927  86.3993 200.6776 0001904  93.4800 266.6614 14.34221684317929
IRIDIUM 175             
1 43928U 19002G   25037.39725402  .00000486  00000+0  73203-4 0  9993
2 43928  86.1567 160.7430 0003099  95.7019 264.4551 14.72225497326296
IRIDIUM 171             
1 43929U 19002H   25037.52577949  .00000583  00000+0  20121-3 0  9998
2 43929  86.4001 200.9366 0002303  83.9280 276.2178 14.34219373317913
IRIDIUM 170             
1 43930U 19002J   25037.47667905  .00001390  00000+0  21662-3 0  9994
2 43930  86.6121 200.7354 0002113 102.1171 258.0283 14.72244458326321
IRIDIUM 167             
1 43931U 19002K   25037.51942891  .00000614  00000+0  21222-3 0  9990
2 43931  86.3993 200.7062 0002439  92.8451 267.3024 14.34221912317918
IRIDIUM 181             
1 56726U 23068S   25037.60933682  .00000720  00000+0  20806-3 0  9996
2 56726  86.4467 263.7890 0002467  79.7440 280.4039 14.43304243 90955
IRIDIUM 177             
1 56727U 23068T   25037.53238713  .00003084  00000+0  40245-3 0  9997
2 56727  86.1997 204.0878 0004284 119.1258 241.0392 14.80216836 93049
IRIDIUM 174             
1 56728U 23068U   25037.52696711  .00001223  00000+0  15746-3 0  9994
2 56728  86.1991 204.2107 0002183  84.4115 275.7354 14.80231806 93049
IRIDIUM 178             
1 56729U 23068V   25037.58916069  .00001030  00000+0  13215-3 0  9997
2 56729  86.5751 232.7255 0002534  68.1651 291.9840 14.80235346 93056
IRIDIUM 179             
1 56730U 23068W   25037.58372636  .00000977  00000+0  12512-3 0  9993
2 56730  86.6752 239.8118 0002123  83.7122 276.4341 14.80237598 93051
